TERA_L_00002035-07
1 74132U 22628MP  26070.40777778  .00000000  00000+0  00000-0 0  9998
2 74132  58.0000 235.3846 0000000   0.0000  51.6923 15.12033277    11
TERA_L_00002035-08
1 74133U 23622CB  26070.40777778  .00000000  00000+0  00000-0 0  9994
2 74133  58.0000 235.3846 0000000   0.0000  57.6923 15.12033277    18
TERA_L_00002035-09
1 74134U 23952DZ  26070.40777778  .00000000  00000+0  00000-0 0  9991
2 74134  58.0000 235.3846 0000000   0.0000  63.6923 15.12033277    16
TERA_L_00002035-10
1 74135U 26270VB  26070.40777778  .00000000  00000+0  00000-0 0  9998
2 74135  58.0000 235.3846 0000000   0.0000  69.6923 15.12033277    13
TERA_L_00002035-11
1 74136U 26962NM  26070.40777778  .00000000  00000+0  00000-0 0  9997
2 74136  58.0000 235.3846 0000000   0.0000  75.6923 15.12033277    11
TERA_L_00002035-12
1 74137U 24913SX  26070.40777778  .00000000  00000+0  00000-0 0  9992
2 74137  58.0000 235.3846 0000000   0.0000  81.6923 15.12033277    19
TERA_L_00002035-13
1 74138U 24395FC  26070.40777778  .00000000  00000+0  00000-0 0  9997
2 74138  58.0000 235.3846 0000000   0.0000  87.6923 15.12033277    16
TERA_L_00002035-14
1 74139U 24309SX  26070.40777778  .00000000  00000+0  00000-0 0  9993
2 74139  58.0000 235.3846 0000000   0.0000  93.6923 15.12033277    14
TERA_L_00002035-15
1 74140U 24139SC  26070.40777778  .00000000  00000+0  00000-0 0  9996
2 74140  58.0000 235.3846 0000000   0.0000  99.6923 15.12033277    12
TERA_L_00002035-16
1 74141U 22734IU  26070.40777778  .00000000  00000+0  00000-0 0  9996
2 74141  58.0000 235.3846 0000000   0.0000 105.6923 15.12033277    11
TERA_L_00002035-17
1 74142U 25416RA  26070.40777778  .00000000  00000+0  00000-0 0  9997
2 74142  58.0000 235.3846 0000000   0.0000 111.6923 15.12033277    19
TERA_L_00002035-18
1 74143U 24353KB  26070.40777778  .00000000  00000+0  00000-0 0  9997
2 74143  58.0000 235.3846 0000000   0.0000 117.6923 15.12033277    16
TERA_L_00002035-19
1 74144U 24925LT  26070.40777778  .00000000  00000+0  00000-0 0  9993
2 74144  58.0000 235.3846 0000000   0.0000 123.6923 15.12033277    14
TERA_L_00002035-20
1 74145U 26053EZ  26070.40777778  .00000000  00000+0  00000-0 0  9998
2 74145  58.0000 235.3846 0000000   0.0000 129.6923 15.12033277    11
TERA_L_00002035-21
1 74146U 25957MP  26070.40777778  .00000000  00000+0  00000-0 0  9991
2 74146  58.0000 235.3846 0000000   0.0000 135.6923 15.12033277    19
TERA_L_00002035-22
1 74147U 24355LR  26070.40777778  .00000000  00000+0  00000-0 0  9993
2 74147  58.0000 235.3846 0000000   0.0000 141.6923 15.12033277    17
TERA_L_00002035-23
1 74148U 25924HE  26070.40777778  .00000000  00000+0  00000-0 0  9997
2 74148  58.0000 235.3846 0000000   0.0000 147.6923 15.12033277    14
TERA_L_00002035-24
1 74149U 25367JN  26070.40777778  .00000000  00000+0  00000-0 0  9999
2 74149  58.0000 235.3846 0000000   0.0000 153.6923 15.12033277    12
TERA_L_00002035-25
1 74150U 26803NT  26070.40777778  .00000000  00000+0  00000-0 0  9997
2 74150  58.0000 235.3846 0000000   0.0000 159.6923 15.12033277    10
TERA_L_00002035-26
1 74151U 23226NW  26070.40777778  .00000000  00000+0  00000-0 0  9994
2 74151  58.0000 235.3846 0000000   0.0000 165.6923 15.12033277    18
TERA_L_00002035-27
1 74152U 23680YY  26070.40777778  .00000000  00000+0  00000-0 0  9999
2 74152  58.0000 235.3846 0000000   0.0000 171.6923 15.12033277    16
TERA_L_00002035-28
1 74153U 23554CC  26070.40777778  .00000000  00000+0  00000-0 0  9990
2 74153  58.0000 235.3846 0000000   0.0000 177.6923 15.12033277    13
TERA_L_00002035-29
1 74154U 22620LO  26070.40777778  .00000000  00000+0  00000-0 0  9994
2 74154  58.0000 235.3846 0000000   0.0000 183.6923 15.12033277    11
TERA_L_00002035-30
1 74155U 23842IG  26070.40777778  .00000000  00000+0  00000-0 0  9992
2 74155  58.0000 235.3846 0000000   0.0000 189.6923 15.12033277    18
TERA_L_00002035-31
1 74156U 23682UB  26070.40777778  .00000000  00000+0  00000-0 0  9995
2 74156  58.0000 235.3846 0000000   0.0000 195.6923 15.12033277    16
TERA_L_00002035-32
1 74157U 22877ZE  26070.40777778  .00000000  00000+0  00000-0 0  9991
2 74157  58.0000 235.3846 0000000   0.0000 201.6923 15.12033277    15
TERA_L_00002035-33
1 74158U 25124RH  26070.40777778  .00000000  00000+0  00000-0 0  9990
2 74158  58.0000 235.3846 0000000   0.0000 207.6923 15.12033277    12
TERA_L_00002035-34
1 74159U 25464RO  26070.40777778  .00000000  00000+0  00000-0 0  9998
2 74159  58.0000 235.3846 0000000   0.0000 213.6923 15.12033277    10
TERA_L_00002035-35
1 74160U 26535QH  26070.40777778  .00000000  00000+0  00000-0 0  9990
2 74160  58.0000 235.3846 0000000   0.0000 219.6923 15.12033277    18
TERA_L_00002035-36
1 74161U 25293FY  26070.40777778  .00000000  00000+0  00000-0 0  9991
2 74161  58.0000 235.3846 0000000   0.0000 225.6923 15.12033277    16
TERA_L_00002035-37
1 74162U 25024BO  26070.40777778  .00000000  00000+0  00000-0 0  9994
2 74162  58.0000 235.3846 0000000   0.0000 231.6923 15.12033277    14
TERA_L_00002035-38
1 74163U 25439MR  26070.40777778  .00000000  00000+0  00000-0 0  9995
2 74163  58.0000 235.3846 0000000   0.0000 237.6923 15.12033277    11
TERA_L_00002035-39
1 74164U 25924KK  26070.40777778  .00000000  00000+0  00000-0 0  9995
2 74164  58.0000 235.3846 0000000   0.0000 243.6923 15.12033277    19
TERA_L_00002035-40
1 74165U 26567GT  26070.40777778  .00000000  00000+0  00000-0 0  9990
2 74165  58.0000 235.3846 0000000   0.0000 249.6923 15.12033277    16
TERA_L_00002035-41
1 74166U 22830PB  26070.40777778  .00000000  00000+0  00000-0 0  9990
2 74166  58.0000 235.3846 0000000   0.0000 255.6923 15.12033277    14
TERA_L_00002035-42
1 74167U 25118BV  26070.40777778  .00000000  00000+0  00000-0 0  9993
2 74167  58.0000 235.3846 0000000   0.0000 261.6923 15.12033277    12
TERA_L_00002035-43
1 74168U 22106VE  26070.40777778  .00000000  00000+0  00000-0 0  9998
2 74168  58.0000 235.3846 0000000   0.0000 267.6923 15.12033277    19
TERA_L_00002035-44
1 74169U 25685BI  26070.40777778  .00000000  00000+0  00000-0 0  9994
2 74169  58.0000 235.3846 0000000   0.0000 273.6923 15.12033277    17
TERA_L_00002035-45
1 74170U 25379PP  26070.40777778  .00000000  00000+0  00000-0 0  9996
2 74170  58.0000 235.3846 0000000   0.0000 279.6923 15.12033277    15
TERA_L_00002035-46
1 74171U 22514QC  26070.40777778  .00000000  00000+0  00000-0 0  9995
2 74171  58.0000 235.3846 0000000   0.0000 285.6923 15.12033277    13
TERA_L_00002035-47
1 74172U 22746NL  26070.40777778  .00000000  00000+0  00000-0 0  9993
2 74172  58.0000 235.3846 0000000   0.0000 291.6923 15.12033277    11
TERA_L_00002035-48
1 74173U 25567IW  26070.40777778  .00000000  00000+0  00000-0 0  9998
2 74173  58.0000 235.3846 0000000   0.0000 297.6923 15.12033277    18
TERA_L_00002035-49
1 74174U 25297FZ  26070.40777778  .00000000  00000+0  00000-0 0  9999
2 74174  58.0000 235.3846 0000000   0.0000 303.6923 15.12033277    17
TERA_L_00002035-50
1 74175U 23120AP  26070.40777778  .00000000  00000+0  00000-0 0  9993
2 74175  58.0000 235.3846 0000000   0.0000 309.6923 15.12033277    14
TERA_L_00002035-51
1 74176U 23192HX  26070.40777778  .00000000  00000+0  00000-0 0  9993
2 74176  58.0000 235.3846 0000000   0.0000 315.6923 15.12033277    12
TERA_L_00002035-52
1 74177U 22675IC  26070.40777778  .00000000  00000+0  00000-0 0  9999
2 74177  58.0000 235.3846 0000000   0.0000 321.6923 15.12033277    10
TERA_L_00002035-53
1 74178U 22357DZ  26070.40777778  .00000000  00000+0  00000-0 0  9997
2 74178  58.0000 235.3846 0000000   0.0000 327.6923 15.12033277    17
TERA_L_00002035-54
1 74179U 22533NB  26070.40777778  .00000000  00000+0  00000-0 0  9994
2 74179  58.0000 235.3846 0000000   0.0000 333.6923 15.12033277    15
TERA_L_00002035-55
1 74180U 26874X   26070.40777778  .00000000  00000+0  00000-0 0  9998
2 74180  58.0000 235.3846 0000000   0.0000 339.6923 15.12033277    13
TERA_L_00002035-56
1 74181U 25221OP  26070.40777778  .00000000  00000+0  00000-0 0  9994
2 74181  58.0000 235.3846 0000000   0.0000 345.6923 15.12033277    11
TERA_L_00002035-57
1 74182U 22309GH  26070.40777778  .00000000  00000+0  00000-0 0  9999
2 74182  58.0000 235.3846 0000000   0.0000 351.6923 15.12033277    19
TERA_L_00002035-58
1 74183U 24521HX  26070.40777778  .00000000  00000+0  00000-0 0  9998
2 74183  58.0000 235.3846 0000000   0.0000 357.6923 15.12033277    16
TERA_L_00002035-59
1 74184U 24529KL  26070.40777778  .00000000  00000+0  00000-0 0  9997
2 74184  58.0000 235.3846 0000000   0.0000   3.6923 15.12033277    15
TERA_L_00002035-60
1 74185U 23683NO  26070.40777778  .00000000  00000+0  00000-0 0  9998
2 74185  58.0000 235.3846 0000000   0.0000   9.6923 15.12033277    12
TERA_L_00002036-01
1 74186U 26614PB  26070.40777778  .00000000  00000+0  00000-0 0  9996
2 74186  58.0000 242.3077 0000000   0.0000  16.1538 15.12033277    12
TERA_L_00002036-02
1 74187U 22055NT  26070.40777778  .00000000  00000+0  00000-0 0  9992
2 74187  58.0000 242.3077 0000000   0.0000  22.1538 15.12033277    10
TERA_L_00002036-03
1 74188U 24422XA  26070.40777778  .00000000  00000+0  00000-0 0  9993
2 74188  58.0000 242.3077 0000000   0.0000  28.1538 15.12033277    17
TERA_L_00002036-04
1 74189U 23379TU  26070.40777778  .00000000  00000+0  00000-0 0  9994
2 74189  58.0000 242.3077 0000000   0.0000  34.1538 15.12033277    15
TERA_L_00002036-05
1 74190U 25733HQ  26070.40777778  .00000000  00000+0  00000-0 0  9992
2 74190  58.0000 242.3077 0000000   0.0000  40.1538 15.12033277    14
TERA_L_00002036-06
1 74191U 23256II  26070.40777778  .00000000  00000+0  00000-0 0  9991
2 74191  58.0000 242.3077 0000000   0.0000  46.1538 15.12033277    11
TERA_L_00002036-07
1 74192U 24328GO  26070.40777778  .00000000  00000+0  00000-0 0  9993
2 74192  58.0000 242.3077 0000000   0.0000  52.1538 15.12033277    19
TERA_L_00002036-08
1 74193U 25030GS  26070.40777778  .00000000  00000+0  00000-0 0  9995
2 74193  58.0000 242.3077 0000000   0.0000  58.1538 15.12033277    16
